{"type": "FeatureCollection", "features": [ {"type": "Feature", "properties": {"norad_id": 32289, "name": "YAOGAN-3", "group": "resource", "lat": -33.01320221780634, "lon": 14.775050749689795, "alt_km": 604.9503010280705, "timestamp": "2025-12-08T23:34:03.626109+00:00", "meta": {"OBJECT_NAME": "YAOGAN-3", "OBJECT_ID": "2007-055A", "EPOCH": "2025-12-08T14:02:44.371392", "MEAN_MOTION": 14.89829776, "ECCENTRICITY": 0.00014206, "INCLINATION": 97.8368, "RA_OF_ASC_NODE": 9.2477, "ARG_OF_PERICENTER": 76.5709, "MEAN_ANOMALY": 283.5667, "EPHEMERIS_TYPE": 0, "CLASSIFICATION_TYPE": "U", "NORAD_CAT_ID": 32289, "ELEMENT_SET_NO": 999, "REV_AT_EPOCH": 97747, "BSTAR": 0.00041788929, "MEAN_MOTION_DOT": 3.958e-05, "MEAN_MOTION_DDOT": 0}, "tle": {"line1": "1 32289U 07055A   25342.58523578  .00003958  00000+0  41789-3 0  9996", "line2": "2 32289  97.8368   9.2477 0001420  76.5709 283.5667 14.89829776977479"}}, "geometry": {"type": "Point", "coordinates": [14.775050749689795, -33.01320221780634]}}, {"type": "Feature", "properties": {"norad_id": 32376, "name": "COSMO-SKYMED 2", "group": "resource", "lat": -10.460903188459124, "lon": 165.8277097459415, "alt_km": 626.8915528264815, "timestamp": "2025-12-08T23:34:03.626121+00:00", "meta": {"OBJECT_NAME": "COSMO-SKYMED 2", "OBJECT_ID": "2007-059A", "EPOCH": "2025-12-08T13:53:37.393728", "MEAN_MOTION": 14.82158922, "ECCENTRICITY": 0.00015262, "INCLINATION": 97.8812, "RA_OF_ASC_NODE": 163.9653, "ARG_OF_PERICENTER": 86.0818, "MEAN_ANOMALY": 274.057, "EPHEMERIS_TYPE": 0, "CLASSIFICATION_TYPE": "U", "NORAD_CAT_ID": 32376, "ELEMENT_SET_NO": 999, "REV_AT_EPOCH": 97376, "BSTAR": 0.00015059388, "MEAN_MOTION_DOT": 1.147e-05, "MEAN_MOTION_DDOT": 0}, "tle": {"line1": "1 32376U 07059A   25342.57890502  .00001147  00000+0  15059-3 0  9999", "line2": "2 32376  97.8812 163.9653 0001526  86.0818 274.0570 14.82158922973765"}}, "geometry": {"type": "Point", "coordinates": [165.8277097459415, -10.460903188459124]}}, {"type": "Feature", "properties": {"norad_id": 32382, "name": "RADARSAT-2", "group": "resource", "lat": -74.33806367607822, "lon": 20.207050103295014, "alt_km": 799.8357116008174, "timestamp": "2025-12-08T23:34:03.626131+00:00", "meta": {"OBJECT_NAME": "RADARSAT-2", "OBJECT_ID": "2007-061A", "EPOCH": "2025-12-08T15:31:48.495648", "MEAN_MOTION": 14.29985788, "ECCENTRICITY": 0.00010884, "INCLINATION": 98.5799, "RA_OF_ASC_NODE": 347.2968, "ARG_OF_PERICENTER": 91.6388, "MEAN_ANOMALY": 268.492, "EPHEMERIS_TYPE": 0, "CLASSIFICATION_TYPE": "U", "NORAD_CAT_ID": 32382, "ELEMENT_SET_NO": 999, "REV_AT_EPOCH": 93872, "BSTAR": 7.7168948e-05, "MEAN_MOTION_DOT": 1.55e-06, "MEAN_MOTION_DDOT": 0}, "tle": {"line1": "1 32382U 07061A   25342.64708907  .00000155  00000+0  77169-4 0  9993", "line2": "2 32382  98.5799 347.2968 0001088  91.6388 268.4920 14.29985788938729"}}, "geometry": {"type": "Point", "coordinates": [20.207050103295014, -74.33806367607822]}}, {"type": "Feature", "properties": {"norad_id": 32783, "name": "CARTOSAT-2A", "group": "resource", "lat": 6.829912730220948, "lon": -146.13727585580523, "alt_km": 642.5874386622709, "timestamp": "2025-12-08T23:34:03.626142+00:00", "meta": {"OBJECT_NAME": "CARTOSAT-2A", "OBJECT_ID": "2008-021A", "EPOCH": "2025-12-08T14:40:10.037856", "MEAN_MOTION": 14.78926689, "ECCENTRICITY": 0.00121163, "INCLINATION": 97.7936, "RA_OF_ASC_NODE": 32.5636, "ARG_OF_PERICENTER": 17.7166, "MEAN_ANOMALY": 342.4466, "EPHEMERIS_TYPE": 0, "CLASSIFICATION_TYPE": "U", "NORAD_CAT_ID": 32783, "ELEMENT_SET_NO": 999, "REV_AT_EPOCH": 95063, "BSTAR": 0.00024141622, "MEAN_MOTION_DOT": 1.732e-05, "MEAN_MOTION_DDOT": 0}, "tle": {"line1": "1 32783U 08021A   25342.61122729  .00001732  00000+0  24142-3 0  9998", "line2": "2 32783  97.7936  32.5636 0012116  17.7166 342.4466 14.78926689950632"}}, "geometry": {"type": "Point", "coordinates": [-146.13727585580523, 6.829912730220948]}}, {"type": "Feature", "properties": {"norad_id": 33320, "name": "HUANJING 1A (HJ-1A)", "group": "resource", "lat": -21.92851465122081, "lon": -25.459451244990774, "alt_km": 618.7665944528144, "timestamp": "2025-12-08T23:34:03.626153+00:00", "meta": {"OBJECT_NAME": "HUANJING 1A (HJ-1A)", "OBJECT_ID": "2008-041A", "EPOCH": "2025-12-08T13:57:12.552192", "MEAN_MOTION": 14.83375356, "ECCENTRICITY": 0.00203905, "INCLINATION": 97.654, "RA_OF_ASC_NODE": 331.0533, "ARG_OF_PERICENTER": 47.5772, "MEAN_ANOMALY": 312.7164, "EPHEMERIS_TYPE": 0, "CLASSIFICATION_TYPE": "U", "NORAD_CAT_ID": 33320, "ELEMENT_SET_NO": 999, "REV_AT_EPOCH": 93014, "BSTAR": 0.00036895792, "MEAN_MOTION_DOT": 2.985e-05, "MEAN_MOTION_DDOT": 0}, "tle": {"line1": "1 33320U 08041A   25342.58139528  .00002985  00000+0  36896-3 0  9999", "line2": "2 33320  97.6540 331.0533 0020390  47.5772 312.7164 14.83375356930144"}}, "geometry": {"type": "Point", "coordinates": [-25.459451244990774, -21.92851465122081]}}, {"type": "Feature", "properties": {"norad_id": 33321, "name": "HUANJING 1B (HJ-1B)", "group": "resource", "lat": -27.257247167287957, "lon": 151.17856735848906, "alt_km": 639.4715763413178, "timestamp": "2025-12-08T23:34:03.626164+00:00", "meta": {"OBJECT_NAME": "HUANJING 1B (HJ-1B)", "OBJECT_ID": "2008-041B", "EPOCH": "2025-12-08T14:32:27.904992", "MEAN_MOTION": 14.82805678, "ECCENTRICITY": 0.00382372, "INCLINATION": 97.6399, "RA_OF_ASC_NODE": 334.7845, "ARG_OF_PERICENTER": 88.9183, "MEAN_ANOMALY": 271.6412, "EPHEMERIS_TYPE": 0, "CLASSIFICATION_TYPE": "U", "NORAD_CAT_ID": 33321, "ELEMENT_SET_NO": 999, "REV_AT_EPOCH": 93016, "BSTAR": 0.00029707706, "MEAN_MOTION_DOT": 2.382e-05, "MEAN_MOTION_DDOT": 0}, "tle": {"line1": "1 33321U 08041B   25342.60587853  .00002382  00000+0  29708-3 0  9996", "line2": "2 33321  97.6399 334.7845 0038237  88.9183 271.6412 14.82805678930162"}}, "geometry": {"type": "Point", "coordinates": [151.17856735848906, -27.257247167287957]}}, {"type": "Feature", "properties": {"norad_id": 33331, "name": "GEOEYE 1", "group": "resource", "lat": 74.10217028036323, "lon": 24.20141347149402, "alt_km": 672.1750569052547, "timestamp": "2025-12-08T23:34:03.626175+00:00", "meta": {"OBJECT_NAME": "GEOEYE 1", "OBJECT_ID": "2008-042A", "EPOCH": "2025-12-08T15:01:24.675456", "MEAN_MOTION": 14.64804897, "ECCENTRICITY": 0.00027912, "INCLINATION": 98.1257, "RA_OF_ASC_NODE": 53.958, "ARG_OF_PERICENTER": 295.0673, "MEAN_ANOMALY": 65.024, "EPHEMERIS_TYPE": 0, "CLASSIFICATION_TYPE": "U", "NORAD_CAT_ID": 33331, "ELEMENT_SET_NO": 999, "REV_AT_EPOCH": 92225, "BSTAR": 0.00024464317, "MEAN_MOTION_DOT": 1.258e-05, "MEAN_MOTION_DDOT": 0}, "tle": {"line1": "1 33331U 08042A   25342.62598004  .00001258  00000+0  24464-3 0  9995", "line2": "2 33331  98.1257  53.9580 0002791 295.0673  65.0240 14.64804897922256"}}, "geometry": {"type": "Point", "coordinates": [24.20141347149402, 74.10217028036323]}}, {"type": "Feature", "properties": {"norad_id": 33396, "name": "THEOS", "group": "resource", "lat": 2.8434413509522667, "lon": -138.38750129991055, "alt_km": 827.3978093300875, "timestamp": "2025-12-08T23:34:03.626186+00:00", "meta": {"OBJECT_NAME": "THEOS", "OBJECT_ID": "2008-049A", "EPOCH": "2025-12-08T14:16:55.170336", "MEAN_MOTION": 14.20095298, "ECCENTRICITY": 0.00011156, "INCLINATION": 98.5874, "RA_OF_ASC_NODE": 40.807, "ARG_OF_PERICENTER": 100.4848, "MEAN_ANOMALY": 259.6455, "EPHEMERIS_TYPE": 0, "CLASSIFICATION_TYPE": "U", "NORAD_CAT_ID": 33396, "ELEMENT_SET_NO": 999, "REV_AT_EPOCH": 89091, "BSTAR": 9.0526603e-05, "MEAN_MOTION_DOT": 1.5e-06, "MEAN_MOTION_DDOT": 0}, "tle": {"line1": "1 33396U 08049A   25342.59508299  .00000150  00000+0  90527-4 0  9990", "line2": "2 33396  98.5874  40.8070 0001115 100.4848 259.6455 14.20095298890912"}}, "geometry": {"type": "Point", "coordinates": [-138.38750129991055, 2.8434413509522667]}}, {"type": "Feature", "properties": {"norad_id": 33412, "name": "COSMO-SKYMED 3", "group": "resource", "lat": -13.185306269669965, "lon": 11.459023850896811, "alt_km": 544.2994794301876, "timestamp": "2025-12-08T23:34:03.626196+00:00", "meta": {"OBJECT_NAME": "COSMO-SKYMED 3", "OBJECT_ID": "2008-054A", "EPOCH": "2025-12-08T14:44:06.841248", "MEAN_MOTION": 15.05293374, "ECCENTRICITY": 0.00158096, "INCLINATION": 97.8459, "RA_OF_ASC_NODE": 192.9363, "ARG_OF_PERICENTER": 187.979, "MEAN_ANOMALY": 172.1187, "EPHEMERIS_TYPE": 0, "CLASSIFICATION_TYPE": "U", "NORAD_CAT_ID": 33412, "ELEMENT_SET_NO": 999, "REV_AT_EPOCH": 92825, "BSTAR": 0.00056272405, "MEAN_MOTION_DOT": 8.009e-05, "MEAN_MOTION_DDOT": 0}, "tle": {"line1": "1 33412U 08054A   25342.61396807  .00008009  00000+0  56272-3 0  9997", "line2": "2 33412  97.8459 192.9363 0015809 187.9790 172.1187 15.05293374928256"}}, "geometry": {"type": "Point", "coordinates": [11.459023850896811, -13.185306269669965]}}, {"type": "Feature", "properties": {"norad_id": 33446, "name": "YAOGAN-4", "group": "resource", "lat": 58.48172153900205, "lon": 106.23503036138972, "alt_km": 623.2081755468607, "timestamp": "2025-12-08T23:34:03.626207+00:00", "meta": {"OBJECT_NAME": "YAOGAN-4", "OBJECT_ID": "2008-061A", "EPOCH": "2025-12-08T13:18:28.139040", "MEAN_MOTION": 14.8266295, "ECCENTRICITY": 0.00139333, "INCLINATION": 97.9177, "RA_OF_ASC_NODE": 272.6947, "ARG_OF_PERICENTER": 337.5968, "MEAN_ANOMALY": 22.4635, "EPHEMERIS_TYPE": 0, "CLASSIFICATION_TYPE": "U", "NORAD_CAT_ID": 33446, "ELEMENT_SET_NO": 999, "REV_AT_EPOCH": 91741, "BSTAR": 0.00037017674, "MEAN_MOTION_DOT": 2.935e-05, "MEAN_MOTION_DDOT": 0}, "tle": {"line1": "1 33446U 08061A   25342.55449235  .00002935  00000+0  37018-3 0  9998", "line2": "2 33446  97.9177 272.6947 0013933 337.5968  22.4635 14.82662950917416"}}, "geometry": {"type": "Point", "coordinates": [106.23503036138972, 58.48172153900205]}}]}